{"type": "FeatureCollection", "features": [ {"type": "Feature", "properties": {"norad_id": 31026, "name": "FENGYUN 1C DEB", "group": "fengyun-1c-debris", "lat": -0.8912314318870724, "lon": -81.56591239365919, "alt_km": 1049.6450368540418, "timestamp": "2025-12-08T10:52:03.227724+00:00", "meta": {"OBJECT_NAME": "FENGYUN 1C DEB", "OBJECT_ID": "1999-025BDU", "EPOCH": "2025-12-05T14:20:13.197408", "MEAN_MOTION": 13.83394717, "ECCENTRICITY": 0.01339877, "INCLINATION": 98.7779, "RA_OF_ASC_NODE": 275.631, "ARG_OF_PERICENTER": 201.9147, "MEAN_ANOMALY": 343.8913, "EPHEMERIS_TYPE": 0, "CLASSIFICATION_TYPE": "U", "NORAD_CAT_ID": 31026, "ELEMENT_SET_NO": 999, "REV_AT_EPOCH": 67927, "BSTAR": 0.00026735766, "MEAN_MOTION_DOT": 2.75e-06, "MEAN_MOTION_DDOT": 0}, "tle": {"line1": "1 31026U 99025BDU 25339.59737497  .00000275  00000+0  26736-3 0  9990", "line2": "2 31026  98.7779 275.6310 0133987 201.9147 343.8913 13.83394717679278"}}, "geometry": {"type": "Point", "coordinates": [-81.56591239365919, -0.8912314318870724]}}, {"type": "Feature", "properties": {"norad_id": 31028, "name": "FENGYUN 1C DEB", "group": "fengyun-1c-debris", "lat": -77.53122015628477, "lon": -41.56681706430506, "alt_km": 831.2663039639992, "timestamp": "2025-12-08T10:52:03.227735+00:00", "meta": {"OBJECT_NAME": "FENGYUN 1C DEB", "OBJECT_ID": "1999-025BDW", "EPOCH": "2025-11-26T01:54:24.970752", "MEAN_MOTION": 13.89048666, "ECCENTRICITY": 0.01654825, "INCLINATION": 98.7043, "RA_OF_ASC_NODE": 263.016, "ARG_OF_PERICENTER": 340.0889, "MEAN_ANOMALY": 19.3862, "EPHEMERIS_TYPE": 0, "CLASSIFICATION_TYPE": "U", "NORAD_CAT_ID": 31028, "ELEMENT_SET_NO": 999, "REV_AT_EPOCH": 61772, "BSTAR": 0.00043609826, "MEAN_MOTION_DOT": 5.49e-06, "MEAN_MOTION_DDOT": 0}, "tle": {"line1": "1 31028U 99025BDW 25330.07945568  .00000549  00000+0  43610-3 0  9990", "line2": "2 31028  98.7043 263.0160 0165482 340.0889  19.3862 13.89048666617726"}}, "geometry": {"type": "Point", "coordinates": [-41.56681706430506, -77.53122015628477]}}, {"type": "Feature", "properties": {"norad_id": 31029, "name": "FENGYUN 1C DEB", "group": "fengyun-1c-debris", "lat": -43.27490018280661, "lon": 50.80267031398372, "alt_km": 831.3003706460722, "timestamp": "2025-12-08T10:52:03.227746+00:00", "meta": {"OBJECT_NAME": "FENGYUN 1C DEB", "OBJECT_ID": "1999-025BDX", "EPOCH": "2025-12-07T23:51:36.558432", "MEAN_MOTION": 14.34307857, "ECCENTRICITY": 0.00900782, "INCLINATION": 98.8589, "RA_OF_ASC_NODE": 238.7767, "ARG_OF_PERICENTER": 87.6107, "MEAN_ANOMALY": 288.6727, "EPHEMERIS_TYPE": 0, "CLASSIFICATION_TYPE": "U", "NORAD_CAT_ID": 31029, "ELEMENT_SET_NO": 999, "REV_AT_EPOCH": 97728, "BSTAR": 0.00049191155, "MEAN_MOTION_DOT": 1.4e-05, "MEAN_MOTION_DDOT": 0}, "tle": {"line1": "1 31029U 99025BDX 25341.99417313  .00001400  00000+0  49191-3 0  9993", "line2": "2 31029  98.8589 238.7767 0090078  87.6107 288.6727 14.34307857977282"}}, "geometry": {"type": "Point", "coordinates": [50.80267031398372, -43.27490018280661]}}, {"type": "Feature", "properties": {"norad_id": 31030, "name": "FENGYUN 1C DEB", "group": "fengyun-1c-debris", "lat": -28.811109381418717, "lon": -140.47899349688527, "alt_km": 826.6093361773856, "timestamp": "2025-12-08T10:52:03.227757+00:00", "meta": {"OBJECT_NAME": "FENGYUN 1C DEB", "OBJECT_ID": "1999-025BDY", "EPOCH": "2025-12-07T22:53:54.532032", "MEAN_MOTION": 14.23643247, "ECCENTRICITY": 0.00280925, "INCLINATION": 98.7671, "RA_OF_ASC_NODE": 43.893, "ARG_OF_PERICENTER": 97.8231, "MEAN_ANOMALY": 76.4411, "EPHEMERIS_TYPE": 0, "CLASSIFICATION_TYPE": "U", "NORAD_CAT_ID": 31030, "ELEMENT_SET_NO": 999, "REV_AT_EPOCH": 96636, "BSTAR": 0.0013192142, "MEAN_MOTION_DOT": 2.977e-05, "MEAN_MOTION_DDOT": 0}, "tle": {"line1": "1 31030U 99025BDY 25341.95410338  .00002977  00000+0  13192-2 0  9992", "line2": "2 31030  98.7671  43.8930 0028092  97.8231  76.4411 14.23643247966364"}}, "geometry": {"type": "Point", "coordinates": [-140.47899349688527, -28.811109381418717]}}, {"type": "Feature", "properties": {"norad_id": 31031, "name": "FENGYUN 1C DEB", "group": "fengyun-1c-debris", "lat": -70.76561515874886, "lon": 52.19159220885145, "alt_km": 817.5331209622063, "timestamp": "2025-12-08T10:52:03.227767+00:00", "meta": {"OBJECT_NAME": "FENGYUN 1C DEB", "OBJECT_ID": "1999-025BDZ", "EPOCH": "2025-12-06T17:15:45.296928", "MEAN_MOTION": 14.20967849, "ECCENTRICITY": 0.0027503, "INCLINATION": 99.0712, "RA_OF_ASC_NODE": 257.6633, "ARG_OF_PERICENTER": 204.2383, "MEAN_ANOMALY": 185.4692, "EPHEMERIS_TYPE": 0, "CLASSIFICATION_TYPE": "U", "NORAD_CAT_ID": 31031, "ELEMENT_SET_NO": 999, "REV_AT_EPOCH": 96769, "BSTAR": 0.00074154334, "MEAN_MOTION_DOT": 1.566e-05, "MEAN_MOTION_DDOT": 0}, "tle": {"line1": "1 31031U 99025BDZ 25340.71927427  .00001566  00000+0  74154-3 0  9997", "line2": "2 31031  99.0712 257.6633 0027503 204.2383 185.4692 14.20967849967691"}}, "geometry": {"type": "Point", "coordinates": [52.19159220885145, -70.76561515874886]}}, {"type": "Feature", "properties": {"norad_id": 31032, "name": "FENGYUN 1C DEB", "group": "fengyun-1c-debris", "lat": -21.36656798945954, "lon": 167.429213871002, "alt_km": 791.2176467253976, "timestamp": "2025-12-08T10:52:03.227777+00:00", "meta": {"OBJECT_NAME": "FENGYUN 1C DEB", "OBJECT_ID": "1999-025BEA", "EPOCH": "2025-12-05T23:48:45.535680", "MEAN_MOTION": 14.02158788, "ECCENTRICITY": 0.01387587, "INCLINATION": 99.3999, "RA_OF_ASC_NODE": 348.6082, "ARG_OF_PERICENTER": 214.4192, "MEAN_ANOMALY": 173.3161, "EPHEMERIS_TYPE": 0, "CLASSIFICATION_TYPE": "U", "NORAD_CAT_ID": 31032, "ELEMENT_SET_NO": 999, "REV_AT_EPOCH": 94887, "BSTAR": 0.0020928879, "MEAN_MOTION_DOT": 3.436e-05, "MEAN_MOTION_DDOT": 0}, "tle": {"line1": "1 31032U 99025BEA 25339.99219370  .00003436  00000+0  20929-2 0  9995", "line2": "2 31032  99.3999 348.6082 0138758 214.4192 173.3161 14.02158788948877"}}, "geometry": {"type": "Point", "coordinates": [167.429213871002, -21.36656798945954]}}, {"type": "Feature", "properties": {"norad_id": 31033, "name": "FENGYUN 1C DEB", "group": "fengyun-1c-debris", "lat": -47.3332190888362, "lon": 131.65813213997296, "alt_km": 834.0051674262186, "timestamp": "2025-12-08T10:52:03.227788+00:00", "meta": {"OBJECT_NAME": "FENGYUN 1C DEB", "OBJECT_ID": "1999-025BEB", "EPOCH": "2025-12-07T22:10:15.635712", "MEAN_MOTION": 14.27443938, "ECCENTRICITY": 0.01539915, "INCLINATION": 98.4378, "RA_OF_ASC_NODE": 320.4149, "ARG_OF_PERICENTER": 124.532, "MEAN_ANOMALY": 264.7039, "EPHEMERIS_TYPE": 0, "CLASSIFICATION_TYPE": "U", "NORAD_CAT_ID": 31033, "ELEMENT_SET_NO": 999, "REV_AT_EPOCH": 97277, "BSTAR": 0.0002583014, "MEAN_MOTION_DOT": 6.76e-06, "MEAN_MOTION_DDOT": 0}, "tle": {"line1": "1 31033U 99025BEB 25341.92379208  .00000676  00000+0  25830-3 0  9999", "line2": "2 31033  98.4378 320.4149 0153991 124.5320 264.7039 14.27443938972777"}}, "geometry": {"type": "Point", "coordinates": [131.65813213997296, -47.3332190888362]}}, {"type": "Feature", "properties": {"norad_id": 31036, "name": "FENGYUN 1C DEB", "group": "fengyun-1c-debris", "lat": 61.80988249956567, "lon": 71.64113068227934, "alt_km": 802.9508503165007, "timestamp": "2025-12-08T10:52:03.227798+00:00", "meta": {"OBJECT_NAME": "FENGYUN 1C DEB", "OBJECT_ID": "1999-025BEE", "EPOCH": "2025-12-07T18:43:08.157792", "MEAN_MOTION": 14.49057802, "ECCENTRICITY": 0.01375995, "INCLINATION": 98.9154, "RA_OF_ASC_NODE": 87.9607, "ARG_OF_PERICENTER": 279.6015, "MEAN_ANOMALY": 234.6698, "EPHEMERIS_TYPE": 0, "CLASSIFICATION_TYPE": "U", "NORAD_CAT_ID": 31036, "ELEMENT_SET_NO": 999, "REV_AT_EPOCH": 57235, "BSTAR": 0.00040336017, "MEAN_MOTION_DOT": 1.669e-05, "MEAN_MOTION_DDOT": 0}, "tle": {"line1": "1 31036U 99025BEE 25341.77995553  .00001669  00000+0  40336-3 0  9993", "line2": "2 31036  98.9154  87.9607 0137599 279.6015 234.6698 14.49057802572352"}}, "geometry": {"type": "Point", "coordinates": [71.64113068227934, 61.80988249956567]}}, {"type": "Feature", "properties": {"norad_id": 31038, "name": "FENGYUN 1C DEB", "group": "fengyun-1c-debris", "lat": -80.8154960720986, "lon": 145.26868841171694, "alt_km": 695.183142429968, "timestamp": "2025-12-08T10:52:03.227808+00:00", "meta": {"OBJECT_NAME": "FENGYUN 1C DEB", "OBJECT_ID": "1999-025BEG", "EPOCH": "2025-12-07T12:01:13.634400", "MEAN_MOTION": 14.45791063, "ECCENTRICITY": 0.00837856, "INCLINATION": 99.0147, "RA_OF_ASC_NODE": 65.1934, "ARG_OF_PERICENTER": 244.1109, "MEAN_ANOMALY": 115.1426, "EPHEMERIS_TYPE": 0, "CLASSIFICATION_TYPE": "U", "NORAD_CAT_ID": 31038, "ELEMENT_SET_NO": 999, "REV_AT_EPOCH": 98159, "BSTAR": 0.0011257236, "MEAN_MOTION_DOT": 4.118e-05, "MEAN_MOTION_DDOT": 0}, "tle": {"line1": "1 31038U 99025BEG 25341.50085225  .00004118  00000+0  11257-2 0  9993", "line2": "2 31038  99.0147  65.1934 0083785 244.1109 115.1426 14.45791063981599"}}, "geometry": {"type": "Point", "coordinates": [145.26868841171694, -80.8154960720986]}}, {"type": "Feature", "properties": {"norad_id": 31040, "name": "FENGYUN 1C DEB", "group": "fengyun-1c-debris", "lat": 1.9829015532938397, "lon": -27.892511911107565, "alt_km": 876.5543724956888, "timestamp": "2025-12-08T10:52:03.227819+00:00", "meta": {"OBJECT_NAME": "FENGYUN 1C DEB", "OBJECT_ID": "1999-025BEJ", "EPOCH": "2025-12-06T10:28:17.608224", "MEAN_MOTION": 14.17659618, "ECCENTRICITY": 0.00619694, "INCLINATION": 98.6577, "RA_OF_ASC_NODE": 330.4446, "ARG_OF_PERICENTER": 212.3611, "MEAN_ANOMALY": 303.8857, "EPHEMERIS_TYPE": 0, "CLASSIFICATION_TYPE": "U", "NORAD_CAT_ID": 31040, "ELEMENT_SET_NO": 999, "REV_AT_EPOCH": 96617, "BSTAR": 0.00054471851, "MEAN_MOTION_DOT": 1.086e-05, "MEAN_MOTION_DDOT": 0}, "tle": {"line1": "1 31040U 99025BEJ 25340.43631491  .00001086  00000+0  54472-3 0  9997", "line2": "2 31040  98.6577 330.4446 0061969 212.3611 303.8857 14.17659618966174"}}, "geometry": {"type": "Point", "coordinates": [-27.892511911107565, 1.9829015532938397]}}]}